H1 CPF 01  gfz 2022 04 13 00  6031 tandemx   
H2 1003001  6202 36605    2022 04 13 00 59 42 2022 04 18 00 00 42   120 1 1  0 0 0
H9
10 0 59685  59022.000000  0   -6019330.911  -2397075.535  -2350673.933
10 0 59685  59142.000000  0   -5746775.164  -2096005.509  -3177408.108
10 0 59685  59262.000000  0   -5368560.096  -1764111.828  -3948391.835
10 0 59685  59382.000000  0   -4890902.701  -1409004.693  -4650171.049
10 0 59685  59502.000000  0   -4321872.503  -1038561.428  -5270534.207
10 0 59685  59622.000000  0   -3671243.762   -660755.404  -5798718.255
10 0 59685  59742.000000  0   -2950317.966   -283488.223  -6225585.118
10 0 59685  59862.000000  0   -2171721.461     85571.398  -6543767.954
10 0 59685  59982.000000  0   -1349181.494    439138.495  -6747786.722
10 0 59685  60102.000000  0    -497285.561    770450.292  -6834131.996
10 0 59685  60222.000000  0     368772.069   1073391.955  -6801318.056
10 0 59685  60342.000000  0    1233453.464   1342605.446  -6649906.191
10 0 59685  60462.000000  0    2081149.881   1573582.396  -6382498.607
10 0 59685  60582.000000  0    2896458.151   1762739.209  -6003698.366
10 0 59685  60702.000000  0    3664456.724   1907472.173  -5520037.481
10 0 59685  60822.000000  0    4370976.268   2006192.469  -4939875.135
10 0 59685  60942.000000  0    5002863.873   2058341.255  -4273265.359
10 0 59685  61062.000000  0    5548233.858   2064383.231  -3531792.688
10 0 59685  61182.000000  0    5996699.272   2025778.597  -2728379.545
10 0 59685  61302.000000  0    6339581.063   1944934.210  -1877067.246
10 0 59685  61422.000000  0    6570087.668   1825134.515   -992771.313
10 0 59685  61542.000000  0    6683459.862   1670452.715    -91017.760
10 0 59685  61662.000000  0    6677076.177   1485644.334    812336.255
10 0 59685  61782.000000  0    6550515.181   1276026.715   1701387.598
10 0 59685  61902.000000  0    6305576.781   1047346.598   2560476.260
10 0 59685  62022.000000  0    5946255.731    805638.472   3374470.516
10 0 59685  62142.000000  0    5478671.891    557078.892   4129040.686
10 0 59685  62262.000000  0    4910956.637    307839.598   4810915.412
10 0 59685  62382.000000  0    4253103.033     63944.463   5408116.190
10 0 59685  62502.000000  0    3516779.294   -168868.777   5910167.403
10 0 59685  62622.000000  0    2715111.920   -385276.029   6308274.777
10 0 59685  62742.000000  0    1862445.614   -580482.233   6595473.557
10 0 59685  62862.000000  0     974082.533   -750323.108   6766745.420
10 0 59685  62982.000000  0      66004.106   -891351.241   6819101.251
10 0 59685  63102.000000  0    -845417.131  -1000904.364   6751628.743
10 0 59685  63222.000000  0   -1743711.778  -1077155.556   6565506.498
10 0 59685  63342.000000  0   -2612609.642  -1119143.516   6263983.941
10 0 59685  63462.000000  0   -3436332.972  -1126782.848   5852329.001
10 0 59685  63582.000000  0   -4199885.734  -1100854.983   5337743.421
10 0 59685  63702.000000  0   -4889332.336  -1042980.336   4729242.970
10 0 59685  63822.000000  0   -5492059.550   -955570.655   4037504.098
10 0 59685  63942.000000  0   -5997015.555   -841762.875   3274679.301
10 0 59685  64062.000000  0   -6394921.112   -705335.817   2454185.527
10 0 59685  64182.000000  0   -6678450.991   -550611.557   1590468.042
10 0 59685  64302.000000  0   -6842378.411   -382343.680    698740.626
10 0 59685  64422.000000  0   -6883676.738   -205595.565   -205290.227
10 0 59685  64542.000000  0   -6801577.345    -25611.115  -1105710.807
10 0 59685  64662.000000  0   -6597581.017    152318.505  -1986689.435
10 0 59685  64782.000000  0   -6275424.702    322987.985  -2832761.015
10 0 59685  64902.000000  0   -5841005.257    481408.261  -3629105.247
10 0 59685  65022.000000  0   -5302258.182    622931.129  -4361809.173
10 0 59685  65142.000000  0   -4668999.448    743364.186  -5018108.247
10 0 59685  65262.000000  0   -3952733.622    839073.694  -5586602.750
10 0 59685  65382.000000  0   -3166434.596    907073.221  -6057446.629
10 0 59685  65502.000000  0   -2324303.316    945095.823  -6422506.421
10 0 59685  65622.000000  0   -1441509.006    951649.925  -6675490.153
10 0 59685  65742.000000  0    -533916.216    926057.927  -6812044.802
10 0 59685  65862.000000  0     382195.009    868476.146  -6829821.522
10 0 59685  65982.000000  0    1290412.608    779896.535  -6728512.772
10 0 59685  66102.000000  0    2174480.559    662129.872  -6509859.179
10 0 59685  66222.000000  0    3018583.880    517770.855  -6177622.499
10 0 59685  66342.000000  0    3807627.413    350145.783  -5737527.350
10 0 59685  66462.000000  0    4527503.276    163242.186  -5197172.037
10 0 59685  66582.000000  0    5165345.138    -38376.905  -4565909.613
10 0 59685  66702.000000  0    5709765.225   -249673.727  -3854696.945
10 0 59685  66822.000000  0    6151066.560   -465249.739  -3075913.635
10 0 59685  66942.000000  0    6481427.452   -679470.678  -2243154.009
10 0 59685  67062.000000  0    6695053.571   -886599.947  -1370992.840
10 0 59685  67182.000000  0    6788291.664  -1080936.648   -474729.219
10 0 59685  67302.000000  0    6759702.160  -1256955.434    429885.722
10 0 59685  67422.000000  0    6610088.391  -1409444.557   1326932.840
10 0 59685  67542.000000  0    6342480.169  -1533638.918   2200613.561
10 0 59685  67662.000000  0    5962072.671  -1625343.741   3035538.041
10 0 59685  67782.000000  0    5476120.454  -1681045.374   3817004.121
10 0 59685  67902.000000  0    4893791.456  -1698008.086   4531261.463
10 0 59685  68022.000000  0    4225984.780  -1674352.708   5165755.631
10 0 59685  68142.000000  0    3485117.991  -1609115.633   5709348.720
10 0 59685  68262.000000  0    2684886.798  -1502288.123   6152512.572
10 0 59685  68382.000000  0    1840004.645  -1354834.651   6487489.947
10 0 59685  68502.000000  0     965927.511  -1168690.488   6708424.976
10 0 59685  68622.000000  0      78567.668   -946737.414   6811459.881
10 0 59685  68742.000000  0    -805996.743   -692758.645   6794796.938
10 0 59685  68862.000000  0   -1671811.788   -411374.374   6658727.127
10 0 59685  68982.000000  0   -2503334.085   -107957.979   6405625.277
10 0 59685  69102.000000  0   -3285709.081    211465.648   6039912.034
10 0 59685  69222.000000  0   -4005038.212    540337.919   5567982.310
10 0 59685  69342.000000  0   -4648630.426    871698.566   4998099.389
10 0 59685  69462.000000  0   -5205232.764   1198329.972   4340256.149
10 0 59685  69582.000000  0   -5665235.608   1512911.155   3606003.745
10 0 59685  69702.000000  0   -6020846.997   1808177.758   2808251.058
10 0 59685  69822.000000  0   -6266233.528   2077084.704   1961037.955
10 0 59685  69942.000000  0   -6397624.397   2312967.740   1079285.428
10 0 59685  70062.000000  0   -6413374.471   2509700.195    178526.038
10 0 59685  70182.000000  0   -6313983.683   2661839.694   -725378.139
10 0 59685  70302.000000  0   -6102073.255   2764761.466  -1616523.827
10 0 59685  70422.000000  0   -5782319.459   2814775.526  -2479254.819
10 0 59685  70542.000000  0   -5361345.499   2809224.288  -3298444.858
10 0 59685  70662.000000  0   -4847575.408   2746557.292  -4059766.527
10 0 59685  70782.000000  0   -4251055.380   2626382.794  -4749941.595
10 0 59685  70902.000000  0   -3583246.920   2449494.862  -5356967.999
10 0 59685  71022.000000  0   -2856798.454   2217876.616  -5870319.569
10 0 59685  71142.000000  0   -2085301.312   1934680.054  -6281118.728
10 0 59685  71262.000000  0   -1283031.906   1604182.066  -6582279.115
10 0 59685  71382.000000  0    -464688.694   1231718.468  -6768615.371
10 0 59685  71502.000000  0     354872.528    823597.611  -6836922.556
10 0 59685  71622.000000  0    1160900.821    386995.614  -6786025.823
10 0 59685  71742.000000  0    1939010.475    -70167.240  -6616799.955
10 0 59685  71862.000000  0    2675431.749   -539366.632  -6332154.844
10 0 59685  71982.000000  0    3357250.383  -1011628.571  -5936991.531
10 0 59685  72102.000000  0    3972631.880  -1477695.943  -5438125.661
10 0 59685  72222.000000  0    4511028.424  -1928205.745  -4844182.148
10 0 59685  72342.000000  0    4963365.077  -2353875.029  -4165457.292
10 0 59685  72462.000000  0    5322200.056  -2745690.354  -3413750.674
10 0 59685  72582.000000  0    5581857.013  -3095097.417  -2602168.352
10 0 59685  72702.000000  0    5738525.031  -3394186.650  -1744898.558
10 0 59685  72822.000000  0    5790322.762  -3635870.093   -856964.749
10 0 59685  72942.000000  0    5737325.522  -3814045.859     46040.293
10 0 59685  73062.000000  0    5581553.028  -3923744.783    948234.030
10 0 59685  73182.000000  0    5326918.063  -3961256.735   1833731.931
10 0 59685  73302.000000  0    4979135.445  -3924230.222   2686937.316
10 0 59685  73422.000000  0    4545594.644  -3811743.725   3492823.663
10 0 59685  73542.000000  0    4035201.127  -3624347.985   4237205.302
10 0 59685  73662.000000  0    3458189.321  -3364078.838   4906991.779
10 0 59685  73782.000000  0    2825910.172  -3034438.504   5490419.333
10 0 59685  73902.000000  0    2150602.325  -2640346.845   5977255.399
10 0 59685  74022.000000  0    1445149.732  -2188064.669   6358973.856
10 0 59685  74142.000000  0     722832.125  -1685091.103   6628898.267
10 0 59685  74262.000000  0      -2926.935  -1140036.406   6782312.687
10 0 59685  74382.000000  0    -718809.685   -562472.638   6816538.725
10 0 59685  74502.000000  0   -1411847.513     37234.961   6730978.752
10 0 59685  74622.000000  0   -2069654.987    648113.631   6527125.739
10 0 59685  74742.000000  0   -2680650.710   1258783.174   6208538.948
10 0 59685  74862.000000  0   -3234261.948   1857667.009   5780785.810
10 0 59685  74982.000000  0   -3721110.221   2433211.394   5251351.063
10 0 59685  75102.000000  0   -4133174.946   2974109.906   4629512.050
10 0 59685  75222.000000  0   -4463931.158   3469527.888   3926181.137
10 0 59685  75342.000000  0   -4708459.091   3909322.191   3153717.533
10 0 59685  75462.000000  0   -4863521.733   4284252.137   2325710.965
99
